[{"OBJECT_NAME":"STARLINK-4030","OBJECT_ID":"2022-053AU","EPOCH":"2026-03-09T12:40:12.884160","MEAN_MOTION":15.08835058,"ECCENTRICITY":0.00012912,"INCLINATION":53.2175,"RA_OF_ASC_NODE":149.8407,"ARG_OF_PERICENTER":96.0311,"MEAN_ANOMALY":264.0828,"EPHEMERIS_TYPE":0,"CLASSIFICATION_TYPE":"U","NORAD_CAT_ID":52698,"ELEMENT_SET_NO":999,"REV_AT_EPOCH":21105,"BSTAR":5.8613354e-5,"MEAN_MOTION_DOT":6.45e-6,"MEAN_MOTION_DDOT":0},{"OBJECT_NAME":"OKEAN-3","OBJECT_ID":"1991-039A","EPOCH":"2026-03-09T19:29:17.530944","MEAN_MOTION":15.0480588,"ECCENTRICITY":0.00139411,"INCLINATION":82.519,"RA_OF_ASC_NODE":336.7249,"ARG_OF_PERICENTER":337.9296,"MEAN_ANOMALY":22.1329,"EPHEMERIS_TYPE":0,"CLASSIFICATION_TYPE":"U","NORAD_CAT_ID":21397,"ELEMENT_SET_NO":999,"REV_AT_EPOCH":86505,"BSTAR":0.00031884915,"MEAN_MOTION_DOT":4.536e-5,"MEAN_MOTION_DDOT":0}]
